SL-16 R/B               
1 22285U 92093B   25301.37309235 -.00000182  00000+0 -68863-4 0  9992
2 22285  71.0202 282.0276 0003647 184.6590 175.4499 14.15418436694435
COSMOS 2228             
1 22286U 92094A   25301.62608422  .00002639  00000+0  22976-3 0  9993
2 22286  82.5207   3.6896 0018785  31.0986 329.1343 14.96429228756307
SL-16 R/B               
1 22566U 93016B   25301.25899276 -.00000118  00000+0 -35929-4 0  9992
2 22566  71.0058 133.3239 0009816 178.5498 181.5655 14.15280105683436
COSMOS 2242             
1 22626U 93024A   25301.35255044  .00003020  00000+0  26753-3 0  9995
2 22626  82.5218  33.2080 0017174  34.8190 325.4151 14.95826774760600
SL-16 R/B               
1 22803U 93059B   25301.41827637  .00000082  00000+0  64209-4 0  9994
2 22803  70.9893 290.0559 0015338  45.9764 314.2621 14.17202618660797
ARIANE 40 R/B           
1 22830U 93061H   25301.43536298  .00000361  00000+0  14824-3 0  9996
2 22830  98.5129   7.7782 0009882 320.2062  39.8396 14.32758950675161
COSMOS 2278             
1 23087U 94023A   25301.48377497 -.00000114  00000+0 -35070-4 0  9994
2 23087  71.0512  91.6891 0010760 238.7675 121.2394 14.14331135626118
SL-16 R/B               
1 23088U 94023B   25301.59084608  .00000249  00000+0  15299-3 0  9993
2 23088  71.0016 348.3028 0002428 182.0269 178.0844 14.14990281627400
SL-16 R/B               
1 23343U 94074B   25301.57385545  .00000723  00000+0  10406-3 0  9997
2 23343  97.7264 332.6599 0005259 297.9416 213.5650 14.79211517667715
SL-16 R/B               
1 23405U 94077B   25301.34128161 -.00000161  00000+0 -57614-4 0  9994
2 23405  70.9814 270.9181 0003431 319.9699  40.1171 14.15538949597509
ARIANE 40+ R/B          
1 23561U 95021B   25301.64894403  .00000461  00000+0  16136-3 0  9993
2 23561  98.4701   9.7717 0007025 168.6923 346.8787 14.39642158600246
SL-16 R/B               
1 23705U 95058B   25301.48305731  .00000257  00000+0  15569-3 0  9998
2 23705  71.0189  97.8166 0013982 314.2278  45.7696 14.15468756549149
