CCSDS_OMM_VERS = 2.0
CREATION_DATE  = 
ORIGINATOR     = 

OBJECT_NAME    = SL-16 R/B
OBJECT_ID      = 1992-093B
CENTER_NAME    = EARTH
REF_FRAME      = TEME
TIME_SYSTEM    = UTC
MEAN_ELEMENT_THEORY = SGP/SGP4

EPOCH          = 2025-10-28T08:57:15.179040
MEAN_MOTION    = 14.15418436
ECCENTRICITY   = .00036474
INCLINATION    = 71.0202
RA_OF_ASC_NODE = 282.0276
ARG_OF_PERICENTER = 184.6590
MEAN_ANOMALY   = 175.4499

EPHEMERIS_TYPE = 0
CLASSIFICATION_TYPE = U
NORAD_CAT_ID   = 22285
ELEMENT_SET_NO = 999
REV_AT_EPOCH   = 69443
BSTAR          = -.68863122E-4
MEAN_MOTION_DOT = -.182E-5
MEAN_MOTION_DDOT = 0

CCSDS_OMM_VERS = 2.0
CREATION_DATE  = 
ORIGINATOR     = 

OBJECT_NAME    = COSMOS 2228
OBJECT_ID      = 1992-094A
CENTER_NAME    = EARTH
REF_FRAME      = TEME
TIME_SYSTEM    = UTC
MEAN_ELEMENT_THEORY = SGP/SGP4

EPOCH          = 2025-10-28T15:01:33.676608
MEAN_MOTION    = 14.96429228
ECCENTRICITY   = .00187852
INCLINATION    = 82.5207
RA_OF_ASC_NODE = 3.6896
ARG_OF_PERICENTER = 31.0986
MEAN_ANOMALY   = 329.1343

EPHEMERIS_TYPE = 0
CLASSIFICATION_TYPE = U
NORAD_CAT_ID   = 22286
ELEMENT_SET_NO = 999
REV_AT_EPOCH   = 75630
BSTAR          = .22975866E-3
MEAN_MOTION_DOT = .2639E-4
MEAN_MOTION_DDOT = 0

CCSDS_OMM_VERS = 2.0
CREATION_DATE  = 
ORIGINATOR     = 

OBJECT_NAME    = SL-16 R/B
OBJECT_ID      = 1993-016B
CENTER_NAME    = EARTH
REF_FRAME      = TEME
TIME_SYSTEM    = UTC
MEAN_ELEMENT_THEORY = SGP/SGP4

EPOCH          = 2025-10-28T06:12:56.974464
MEAN_MOTION    = 14.15280105
ECCENTRICITY   = .00098164
INCLINATION    = 71.0058
RA_OF_ASC_NODE = 133.3239
ARG_OF_PERICENTER = 178.5498
MEAN_ANOMALY   = 181.5655

EPHEMERIS_TYPE = 0
CLASSIFICATION_TYPE = U
NORAD_CAT_ID   = 22566
ELEMENT_SET_NO = 999
REV_AT_EPOCH   = 68343
BSTAR          = -.35928534E-4
MEAN_MOTION_DOT = -.118E-5
MEAN_MOTION_DDOT = 0

CCSDS_OMM_VERS = 2.0
CREATION_DATE  = 
ORIGINATOR     = 

OBJECT_NAME    = COSMOS 2242
OBJECT_ID      = 1993-024A
CENTER_NAME    = EARTH
REF_FRAME      = TEME
TIME_SYSTEM    = UTC
MEAN_ELEMENT_THEORY = SGP/SGP4

EPOCH          = 2025-10-28T08:27:40.358016
MEAN_MOTION    = 14.95826774
ECCENTRICITY   = .00171748
INCLINATION    = 82.5218
RA_OF_ASC_NODE = 33.2080
ARG_OF_PERICENTER = 34.8190
MEAN_ANOMALY   = 325.4151

EPHEMERIS_TYPE = 0
CLASSIFICATION_TYPE = U
NORAD_CAT_ID   = 22626
ELEMENT_SET_NO = 999
REV_AT_EPOCH   = 76060
BSTAR          = .26753348E-3
MEAN_MOTION_DOT = .302E-4
MEAN_MOTION_DDOT = 0

CCSDS_OMM_VERS = 2.0
CREATION_DATE  = 
ORIGINATOR     = 

OBJECT_NAME    = SL-16 R/B
OBJECT_ID      = 1993-059B
CENTER_NAME    = EARTH
REF_FRAME      = TEME
TIME_SYSTEM    = UTC
MEAN_ELEMENT_THEORY = SGP/SGP4

EPOCH          = 2025-10-28T10:02:19.078368
MEAN_MOTION    = 14.17202618
ECCENTRICITY   = .00153385
INCLINATION    = 70.9893
RA_OF_ASC_NODE = 290.0559
ARG_OF_PERICENTER = 45.9764
MEAN_ANOMALY   = 314.2621

EPHEMERIS_TYPE = 0
CLASSIFICATION_TYPE = U
NORAD_CAT_ID   = 22803
ELEMENT_SET_NO = 999
REV_AT_EPOCH   = 66079
BSTAR          = .642092E-4
MEAN_MOTION_DOT = .82E-6
MEAN_MOTION_DDOT = 0

CCSDS_OMM_VERS = 2.0
CREATION_DATE  = 
ORIGINATOR     = 

OBJECT_NAME    = ARIANE 40 R/B
OBJECT_ID      = 1993-061H
CENTER_NAME    = EARTH
REF_FRAME      = TEME
TIME_SYSTEM    = UTC
MEAN_ELEMENT_THEORY = SGP/SGP4

EPOCH          = 2025-10-28T10:26:55.361472
MEAN_MOTION    = 14.32758950
ECCENTRICITY   = .00098829
INCLINATION    = 98.5129
RA_OF_ASC_NODE = 7.7782
ARG_OF_PERICENTER = 320.2062
MEAN_ANOMALY   = 39.8396

EPHEMERIS_TYPE = 0
CLASSIFICATION_TYPE = U
NORAD_CAT_ID   = 22830
ELEMENT_SET_NO = 999
REV_AT_EPOCH   = 67516
BSTAR          = .1482364E-3
MEAN_MOTION_DOT = .361E-5
MEAN_MOTION_DDOT = 0

CCSDS_OMM_VERS = 2.0
CREATION_DATE  = 
ORIGINATOR     = 

OBJECT_NAME    = COSMOS 2278
OBJECT_ID      = 1994-023A
CENTER_NAME    = EARTH
REF_FRAME      = TEME
TIME_SYSTEM    = UTC
MEAN_ELEMENT_THEORY = SGP/SGP4

EPOCH          = 2025-10-28T11:36:38.157408
MEAN_MOTION    = 14.14331135
ECCENTRICITY   = .00107608
INCLINATION    = 71.0512
RA_OF_ASC_NODE = 91.6891
ARG_OF_PERICENTER = 238.7675
MEAN_ANOMALY   = 121.2394

EPHEMERIS_TYPE = 0
CLASSIFICATION_TYPE = U
NORAD_CAT_ID   = 23087
ELEMENT_SET_NO = 999
REV_AT_EPOCH   = 62611
BSTAR          = -.35070156E-4
MEAN_MOTION_DOT = -.114E-5
MEAN_MOTION_DDOT = 0

CCSDS_OMM_VERS = 2.0
CREATION_DATE  = 
ORIGINATOR     = 

OBJECT_NAME    = SL-16 R/B
OBJECT_ID      = 1994-023B
CENTER_NAME    = EARTH
REF_FRAME      = TEME
TIME_SYSTEM    = UTC
MEAN_ELEMENT_THEORY = SGP/SGP4

EPOCH          = 2025-10-28T14:10:49.101312
MEAN_MOTION    = 14.14990281
ECCENTRICITY   = .00024282
INCLINATION    = 71.0016
RA_OF_ASC_NODE = 348.3028
ARG_OF_PERICENTER = 182.0269
MEAN_ANOMALY   = 178.0844

EPHEMERIS_TYPE = 0
CLASSIFICATION_TYPE = U
NORAD_CAT_ID   = 23088
ELEMENT_SET_NO = 999
REV_AT_EPOCH   = 62740
BSTAR          = .15299337E-3
MEAN_MOTION_DOT = .249E-5
MEAN_MOTION_DDOT = 0

CCSDS_OMM_VERS = 2.0
CREATION_DATE  = 
ORIGINATOR     = 

OBJECT_NAME    = SL-16 R/B
OBJECT_ID      = 1994-074B
CENTER_NAME    = EARTH
REF_FRAME      = TEME
TIME_SYSTEM    = UTC
MEAN_ELEMENT_THEORY = SGP/SGP4

EPOCH          = 2025-10-28T13:46:21.110880
MEAN_MOTION    = 14.79211517
ECCENTRICITY   = .00052591
INCLINATION    = 97.7264
RA_OF_ASC_NODE = 332.6599
ARG_OF_PERICENTER = 297.9416
MEAN_ANOMALY   = 213.5650

EPHEMERIS_TYPE = 0
CLASSIFICATION_TYPE = U
NORAD_CAT_ID   = 23343
ELEMENT_SET_NO = 999
REV_AT_EPOCH   = 66771
BSTAR          = .10406103E-3
MEAN_MOTION_DOT = .723E-5
MEAN_MOTION_DDOT = 0

CCSDS_OMM_VERS = 2.0
CREATION_DATE  = 
ORIGINATOR     = 

OBJECT_NAME    = SL-16 R/B
OBJECT_ID      = 1994-077B
CENTER_NAME    = EARTH
REF_FRAME      = TEME
TIME_SYSTEM    = UTC
MEAN_ELEMENT_THEORY = SGP/SGP4

EPOCH          = 2025-10-28T08:11:26.731104
MEAN_MOTION    = 14.15538949
ECCENTRICITY   = .00034314
INCLINATION    = 70.9814
RA_OF_ASC_NODE = 270.9181
ARG_OF_PERICENTER = 319.9699
MEAN_ANOMALY   = 40.1171

EPHEMERIS_TYPE = 0
CLASSIFICATION_TYPE = U
NORAD_CAT_ID   = 23405
ELEMENT_SET_NO = 999
REV_AT_EPOCH   = 59750
BSTAR          = -.57613514E-4
MEAN_MOTION_DOT = -.161E-5
MEAN_MOTION_DDOT = 0

CCSDS_OMM_VERS = 2.0
CREATION_DATE  = 
ORIGINATOR     = 

OBJECT_NAME    = ARIANE 40+ R/B
OBJECT_ID      = 1995-021B
CENTER_NAME    = EARTH
REF_FRAME      = TEME
TIME_SYSTEM    = UTC
MEAN_ELEMENT_THEORY = SGP/SGP4

EPOCH          = 2025-10-28T15:34:28.764192
MEAN_MOTION    = 14.39642158
ECCENTRICITY   = .00070251
INCLINATION    = 98.4701
RA_OF_ASC_NODE = 9.7717
ARG_OF_PERICENTER = 168.6923
MEAN_ANOMALY   = 346.8787

EPHEMERIS_TYPE = 0
CLASSIFICATION_TYPE = U
NORAD_CAT_ID   = 23561
ELEMENT_SET_NO = 999
REV_AT_EPOCH   = 60024
BSTAR          = .16136215E-3
MEAN_MOTION_DOT = .461E-5
MEAN_MOTION_DDOT = 0

CCSDS_OMM_VERS = 2.0
CREATION_DATE  = 
ORIGINATOR     = 

OBJECT_NAME    = SL-16 R/B
OBJECT_ID      = 1995-058B
CENTER_NAME    = EARTH
REF_FRAME      = TEME
TIME_SYSTEM    = UTC
MEAN_ELEMENT_THEORY = SGP/SGP4

EPOCH          = 2025-10-28T11:35:36.151584
MEAN_MOTION    = 14.15468756
ECCENTRICITY   = .00139828
INCLINATION    = 71.0189
RA_OF_ASC_NODE = 97.8166
ARG_OF_PERICENTER = 314.2278
MEAN_ANOMALY   = 45.7696

EPHEMERIS_TYPE = 0
CLASSIFICATION_TYPE = U
NORAD_CAT_ID   = 23705
ELEMENT_SET_NO = 999
REV_AT_EPOCH   = 54914
BSTAR          = .15568825E-3
MEAN_MOTION_DOT = .257E-5
MEAN_MOTION_DDOT = 0

